IRIDIUM 112             
1 41925U 17003J   24337.70627347  .00000681  00000+0  23606-3 0  9991
2 41925  86.3949 322.9424 0002605  90.6920 269.4574 14.34217941412793
IRIDIUM 111             
1 41926U 17003K   24337.90288773  .00000816  00000+0  28431-3 0  9991
2 41926  86.3948 322.9183 0002250  85.1612 274.9841 14.34219782412870
IRIDIUM 113             
1 42803U 17039A   24337.88285943  .00000785  00000+0  27308-3 0  9995
2 42803  86.4010 196.7149 0002461  86.7388 273.4089 14.34220753390734
IRIDIUM 123             
1 42804U 17039B   24337.64526643  .00000059  00000+0  14045-4 0  9994
2 42804  86.4008 228.2575 0002017  74.9598 285.1821 14.34216033389463
IRIDIUM 120             
1 42805U 17039C   24337.87651906  .00000751  00000+0  26098-3 0  9990
2 42805  86.3996 196.5730 0001783  81.8693 278.2705 14.34214997390723
IRIDIUM 115             
1 42806U 17039D   24337.88543159  .00000975  00000+0  28386-3 0  9992
2 42806  86.4538 196.6191 0002093  74.0220 286.1211 14.43285009393303
IRIDIUM 118             
1 42807U 17039E   24337.74673566  .00000099  00000+0  28174-4 0  9997
2 42807  86.3999 228.2151 0002124  85.5289 274.6150 14.34213040389472
IRIDIUM 117             
1 42808U 17039F   24337.62622503  .00000808  00000+0  28151-3 0  9992
2 42808  86.3995 228.2286 0002089  76.2374 283.9055 14.34225786389488
